STARLINK-2022           
1 47643U 21012Z   23177.11235157  .00000237  00000+0  34824-4 0  9991
2 47643  53.0539 165.0279 0001211  88.4810 271.6318 15.06391336130891